[{"OBJECT_NAME":"STARLINK-3605","OBJECT_ID":"2022-017AP","EPOCH":"2026-03-09T21:22:12.350208","MEAN_MOTION":15.08817665,"ECCENTRICITY":0.00014293,"INCLINATION":53.219,"RA_OF_ASC_NODE":328.298,"ARG_OF_PERICENTER":84.9132,"MEAN_ANOMALY":275.2023,"EPHEMERIS_TYPE":0,"CLASSIFICATION_TYPE":"U","NORAD_CAT_ID":51805,"ELEMENT_SET_NO":999,"REV_AT_EPOCH":22427,"BSTAR":0.0002416074,"MEAN_MOTION_DOT":3.557e-5,"MEAN_MOTION_DDOT":0},{"OBJECT_NAME":"CZ-4B DEB","OBJECT_ID":"2004-035J","EPOCH":"2026-03-07T20:16:16.859712","MEAN_MOTION":15.09572175,"ECCENTRICITY":0.00105031,"INCLINATION":97.5432,"RA_OF_ASC_NODE":82.067,"ARG_OF_PERICENTER":356.2804,"MEAN_ANOMALY":3.8346,"EPHEMERIS_TYPE":0,"CLASSIFICATION_TYPE":"U","NORAD_CAT_ID":29042,"ELEMENT_SET_NO":999,"REV_AT_EPOCH":69625,"BSTAR":0.00031812935,"MEAN_MOTION_DOT":5.052e-5,"MEAN_MOTION_DDOT":0}]
